CHINASAT 2A (ZX 2A)     
1 38352U 12028A   17238.81782021 -.00000315  00000-0  00000-0 0  9994
2 38352   0.0532 275.0343 0002503  53.0735  39.7785  1.00274881 19123
INTELSAT 19 (IS-19)     
1 38356U 12030A   17238.60815945 -.00000079  00000-0  00000-0 0  9997
2 38356   0.0091  77.4904 0002921  79.6889 202.8337  1.00270105 19268
ECHOSTAR 17             
1 38551U 12035A   17238.36754584 -.00000098  00000-0  00000-0 0  9994
2 38551   0.0239 129.0232 0002174  22.8068 208.1818  1.00270892 18823
METEOSAT-10 (MSG-3)     
1 38552U 12035B   17238.06984368 -.00000024  00000-0  00000-0 0  9996
2 38552   0.8393   0.8514 0002029 145.5599 213.5934  1.00279822 18969
SES-5                   
1 38652U 12036A   17238.42896512  .00000011  00000-0  00000-0 0  9996
2 38652   0.0460 279.8088 0001941 223.3632 351.0892  1.00271564 12258
TIANLIAN 1-03           
1 38730U 12040A   17238.04161574  .00000048  00000-0  00000-0 0  9999
2 38730   0.1191 259.7705 0004337 251.1572 209.0869  1.00271642 16464
INTELSAT 20 (IS-20)     
1 38740U 12043A   17237.88101698 -.00000049  00000-0  00000-0 0  9997
2 38740   0.0196 132.2944 0001724  55.4200 172.2733  1.00272313 18570
HYLAS 2                 
1 38741U 12043B   17237.98488147  .00000130  00000-0  00000-0 0  9996
2 38741   0.0515 288.8274 0001729 220.6530 210.5202  1.00272455 18515
INTELSAT 21 (IS-21)     
1 38749U 12045A   17238.23149632 -.00000308  00000-0  00000-0 0  9996
2 38749   0.0175 168.2016 0002051 343.9569 207.8436  1.00273112 18306
ASTRA 2F                
1 38778U 12051A   17237.99273849  .00000126  00000-0  00000-0 0  9992
2 38778   0.0877 247.3820 0003395 306.8223 165.7766  1.00272046  8915
GSAT-10                 
1 38779U 12051B   17237.84101438 -.00000189  00000-0  00000-0 0  9991
2 38779   0.0575 279.5605 0001614 172.6731 267.7749  1.00272658 17861
INTELSAT 23 (IS-23)     
1 38867U 12057A   17238.21759360 -.00000308  00000-0  00000-0 0  9993
2 38867   0.0248 228.5388 0001705 280.1566 211.3057  1.00271065 17756
BEIDOU G6               
1 38953U 12059A   17238.88379263 -.00000197  00000-0  00000-0 0  9990
2 38953   1.7963  80.1210 0005410 157.0069 140.3827  1.00270734 17799
LUCH 5B                 
1 38977U 12061A   17238.88032063 -.00000153  00000-0  00000-0 0  9995
2 38977   3.6802  74.0735 0001527  62.8590 138.9662  1.00269756 17926
YAMAL 300K              
1 38978U 12061B   17238.74173997  .00000049  00000-0  00000-0 0  9996
2 38978   0.0225 219.5476 0001603  36.7287 168.8638  1.00270654 17624
STAR ONE C3             
1 38991U 12062A   17238.56782164 -.00000271  00000-0  00000-0 0  9992
2 38991   0.0271  71.1419 0002054 108.0543 285.2210  1.00272314 17522
EUTELSAT 21B            
1 38992U 12062B   17238.01106338  .00000106  00000-0  00000-0 0  9992
2 38992   0.0681  21.1473 0002607 137.0202 201.8343  1.00272726 17608
ECHOSTAR 16             
1 39008U 12065A   17238.24124120 -.00000305  00000-0  00000-0 0  9990
2 39008   0.0218 125.4492 0002072  25.9114 208.6507  1.00270155 17370
CHINASAT 12 (ZX 12)     
1 39017U 12067A   17238.83608991 -.00000229  00000-0  00000-0 0  9995
2 39017   0.0171 111.2088 0002623  39.6579 212.8883  1.00271912 17254
EUTELSAT 70B            
1 39020U 12069A   17237.87551442 -.00000068  00000-0  00000-0 0  9993
2 39020   0.0637  19.1258 0002750 115.9618 224.9250  1.00271094 17245
YAMAL 402               
1 39022U 12070A   17238.13764480  .00000062  00000-0  10000-3 0  9992
2 39022   0.0075 286.7817 0002563 230.7984 281.4277  1.00272492 17341
SKYNET 5D               
1 39034U 12075A   17238.79007758  .00000077  00000-0  00000-0 0  9992
2 39034   0.0719   8.1052 0003499 152.1435 152.1207  1.00272446 16911
MEXSAT 3                
1 39035U 12075B   17238.38889531 -.00000048  00000-0  00000-0 0  9994
2 39035   0.0622 274.0810 0002129 235.1445 210.7783  1.00272181 16931
TDRS 11                 
1 39070U 13004A   17238.45743230  .00000074  00000-0  00000+0 0  9996
2 39070   5.3031 328.5788 0007995 285.1063  74.8772  1.00265224 16733
AMAZONAS 3              
1 39078U 13006A   17238.23975810 -.00000305  00000-0  00000-0 0  9992
2 39078   0.0404 224.7597 0004039 326.6834 168.5389  1.00271516 12636
AZERSPACE 1             
1 39079U 13006B   17237.94343475  .00000109  00000-0  00000-0 0  9997
2 39079   0.0194 135.7894 0001148  32.7383 191.4749  1.00270617 16557
EUTELSAT 117 WEST A     
1 39122U 13012A   17238.39437353 -.00000036  00000-0  00000+0 0  9991
2 39122   0.0130 104.4239 0002492  55.3065 200.2710  1.00273114 16218
ANIK G1                 
1 39127U 13014A   17238.36795101 -.00000097  00000-0  00000-0 0  9991
2 39127   0.0197 233.5564 0001079 320.4066 166.0340  1.00271329 16010
CHINASAT 11 (ZX 11)     
1 39157U 13020A   17238.85674234 -.00000313  00000-0  00000-0 0  9999
2 39157   0.0476 275.4351 0001573  22.3486  83.9046  1.00274413 15909
EUTELSAT 7B             
1 39163U 13022A   17238.05147401  .00000024  00000-0  00000+0 0  9998
2 39163   0.0460   7.1246 0001851  31.6722 321.2070  1.00273001 15746
SES-6                   
1 39172U 13026A   17238.78795976 -.00000283  00000-0  00000-0 0  9997
2 39172   0.0547 308.5412 0001826 220.5200  49.3071  1.00267254 15479
IRNSS-1A                
1 39199U 13034A   17238.23341748  .00000075  00000-0  00000-0 0  9997
2 39199  28.9291 113.8275 0018455 180.8469 179.2441  1.00279748 15394
ALPHASAT                
1 39215U 13038A   17238.08288493  .00000114  00000-0  00000-0 0  9994
2 39215   1.7466  28.5288 0002119 108.8341 251.8378  1.00271389 15019
INSAT-3D                
1 39216U 13038B   17237.84342084 -.00000180  00000-0  00000-0 0  9999
2 39216   0.0164 234.6972 0000334 294.4239 190.8796  1.00270465 15045
EUTELSAT 25B            
1 39233U 13044A   17238.00022617  .00000119  00000-0  00000-0 0  9992
2 39233   0.0521 350.5593 0001140 145.7089 223.7313  1.00270393 14382
GSAT-7                  
1 39234U 13044B   17237.86581164 -.00000101  00000-0  00000-0 0  9995
2 39234   0.1159 268.9721 0002341 323.4765 127.5202  1.00272298 13109
AMOS-4                  
1 39237U 13045A   17237.89073007 -.00000017  00000-0  00000-0 0  9990
2 39237   0.0316 226.6423 0001259 316.0837 177.2636  1.00270297 14708
ASTRA 2E                
1 39285U 13056A   17237.99186467  .00000126  00000-0  00000+0 0  9990
2 39285   0.0572   4.6191 0002051 143.7972 211.5866  1.00269268 14339
SIRIUS FM-6             
1 39360U 13058A   17238.39252546 -.00000040  00000-0  00000+0 0  9999
2 39360   0.0081 107.6755 0000209 321.3252 290.9929  1.00271631 14097
RADUGA-1M 3             
1 39375U 13062A   17238.48129110 -.00000061  00000-0  00000-0 0  9994
2 39375   0.0203 194.3718 0002032 337.3202  46.4585  1.00271861 13871
SES-8                   
1 39460U 13071A   17238.80496303 -.00000292  00000-0  00000-0 0  9992
2 39460   0.0595 278.7064 0002456 210.2393 231.0684  1.00273877 12264
INMARSAT 5-F1           
1 39476U 13073A   17238.78521875  .00000006  00000-0  00000-0 0  9993
2 39476   0.0193 127.1174 0000678 219.8371 333.5412  1.00272761 13347
TKSAT-1 (TUPAC KATARI)  
1 39481U 13075A   17238.63590924 -.00000216  00000-0  00000-0 0  9990
2 39481   0.0213 117.8100 0001910  10.6918 348.3047  1.00268589 13346
EXPRESS-AM5             
1 39487U 13077A   17238.37632858 -.00000303  00000-0  00000+0 0  9998
2 39487   0.0381 283.1249 0001195  57.4824 269.7001  1.00270987 14116
GSAT-14                 
1 39498U 14001A   17237.86594104 -.00000102  00000-0  00000-0 0  9990
2 39498   0.0887 269.1655 0004029 214.8242 236.0386  1.00272483 13201
THAICOM 6               
1 39500U 14002A   17238.79997299 -.00000144  00000-0  00000-0 0  9996
2 39500   0.0367 142.7739 0004162  19.7760 179.1679  1.00273213 13262
TDRS 12                 
1 39504U 14004A   17238.11829873 -.00000291  00000-0  00000-0 0  9993
2 39504   5.9030 335.9988 0001796 247.8411 112.2202  1.00265314 12022
ABS-2                   
1 39508U 14006A   17237.86332309 -.00000111  00000-0  00000-0 0  9994
2 39508   0.0242 317.1956 0002354 194.1343 208.6733  1.00272392 13050
ATHENA-FIDUS            
1 39509U 14006B   17237.96611360  .00000130  00000-0  00000-0 0  9993
2 39509   0.0250 129.6260 0001380  21.1681 209.2136  1.00269441 13242
TURKSAT 4A              
1 39522U 14007A   17237.95437439  .00000122  00000-0  00000-0 0  9992
2 39522   0.0770 276.6922 0002708 295.6287 147.6530  1.00268913 12747
EXPRESS-AT1             
1 39612U 14010A   17238.13622203  .00000055  00000-0  00000+0 0  9996
2 39612   0.0372 278.4153 0000334  33.2236 127.9679  1.00273442 12797
EXPRESS-AT2             
1 39613U 14010B   17238.37632858 -.00000305  00000-0  00000+0 0  9999
2 39613   0.0438 287.3393 0000392  20.3425 302.4325  1.00270802 12624
AMAZONAS 4A             
1 39616U 14011A   17238.23974279 -.00000306  00000-0  00000-0 0  9996
2 39616   0.0300  38.9863 0003133  80.7565 240.2795  1.00274246 12444
ASTRA 5B                
1 39617U 14011B   17238.86091015  .00000133  00000-0  00000-0 0  9991
2 39617   0.0894 295.6383 0004293 222.1538 158.9317  1.00275607 12618
IRNSS-1B                
1 39635U 14017A   17237.73505242  .00000067  00000-0  00000-0 0  9990
2 39635  28.9602 293.8028 0023416 186.0721 173.9585  1.00275133 12540
LUCH 5V                 
1 39727U 14023A   17238.83112904 -.00000290  00000-0  00000-0 0  9999
2 39727   2.5748 298.9426 0001285 239.9835 190.2638  1.00272677530279
KAZSAT-3                
1 39728U 14023B   17237.90874096  .00000036  00000-0  00000-0 0  9991
2 39728   0.0110  95.0913 0000362 141.8192 123.0764  1.00274253 12186
EUTELSAT 3B             
1 39773U 14030A   17238.77941632 -.00000002  00000-0  00000-0 0  9990
2 39773   0.0627 357.5301 0002989 169.6759  91.6596  1.00272670 11824
ASIASAT 8               
1 40107U 14046A   17238.08162263 -.00000057  00000-0  00000-0 0  9999
2 40107   0.0175 134.1884 0002134  20.1820 205.6402  1.00270040 69906
